{"type": "FeatureCollection", "features": [ {"type": "Feature", "properties": {"norad_id": 66645, "name": "SHENZHOU-22", "group": "last-30-days", "lat": -34.84554930855165, "lon": 159.9514644003168, "alt_km": 390.3139676384035, "timestamp": "2025-12-27T08:36:17.076420+00:00", "meta": {"OBJECT_NAME": "SHENZHOU-22", "OBJECT_ID": "2025-272A", "EPOCH": "2025-12-26T22:21:45.161280", "MEAN_MOTION": 15.59735336, "ECCENTRICITY": 0.00087329, "INCLINATION": 41.4675, "RA_OF_ASC_NODE": 290.5114, "ARG_OF_PERICENTER": 154.941, "MEAN_ANOMALY": 205.1854, "EPHEMERIS_TYPE": 0, "CLASSIFICATION_TYPE": "U", "NORAD_CAT_ID": 66645, "ELEMENT_SET_NO": 999, "REV_AT_EPOCH": 26598, "BSTAR": 0.00023104085, "MEAN_MOTION_DOT": 0.00018761, "MEAN_MOTION_DDOT": 0}, "tle": {"line1": "1 66645U 25272A   25360.93177270  .00018761  00000+0  23104-3 0  9992", "line2": "2 66645  41.4675 290.5114 0008732 154.9410 205.1854 15.59735336265984"}}, "geometry": {"type": "Point", "coordinates": [159.9514644003168, -34.84554930855165]}}, {"type": "Feature", "properties": {"norad_id": 66647, "name": "COSMOS 2597 (RODNIK-S 22)", "group": "last-30-days", "lat": -78.93938786633946, "lon": -124.99749211027112, "alt_km": 1500.33802201264, "timestamp": "2025-12-27T08:36:17.076431+00:00", "meta": {"OBJECT_NAME": "COSMOS 2597 (RODNIK-S 22)", "OBJECT_ID": "2025-273A", "EPOCH": "2025-12-26T19:30:39.240288", "MEAN_MOTION": 12.41952314, "ECCENTRICITY": 0.00075998, "INCLINATION": 82.4993, "RA_OF_ASC_NODE": 277.7108, "ARG_OF_PERICENTER": 252.7737, "MEAN_ANOMALY": 107.251, "EPHEMERIS_TYPE": 0, "CLASSIFICATION_TYPE": "U", "NORAD_CAT_ID": 66647, "ELEMENT_SET_NO": 999, "REV_AT_EPOCH": 388, "BSTAR": 9.9658941e-05, "MEAN_MOTION_DOT": 2.3e-07, "MEAN_MOTION_DDOT": 0}, "tle": {"line1": "1 66647U 25273A   25360.81295417  .00000023  00000+0  99659-4 0  9997", "line2": "2 66647  82.4993 277.7108 0007599 252.7737 107.2510 12.41952314  3888"}}, "geometry": {"type": "Point", "coordinates": [-124.99749211027112, -78.93938786633946]}}, {"type": "Feature", "properties": {"norad_id": 66648, "name": "COSMOS 2598 (RODNIK-S 23)", "group": "last-30-days", "lat": 20.91122612001338, "lon": -79.76092420100994, "alt_km": 1499.1012973673787, "timestamp": "2025-12-27T08:36:17.076441+00:00", "meta": {"OBJECT_NAME": "COSMOS 2598 (RODNIK-S 23)", "OBJECT_ID": "2025-273B", "EPOCH": "2025-12-27T02:41:50.051040", "MEAN_MOTION": 12.43233668, "ECCENTRICITY": 0.000826, "INCLINATION": 82.5032, "RA_OF_ASC_NODE": 277.5085, "ARG_OF_PERICENTER": 202.6396, "MEAN_ANOMALY": 157.432, "EPHEMERIS_TYPE": 0, "CLASSIFICATION_TYPE": "U", "NORAD_CAT_ID": 66648, "ELEMENT_SET_NO": 999, "REV_AT_EPOCH": 392, "BSTAR": 5.6644e-05, "MEAN_MOTION_DOT": 1.8e-07, "MEAN_MOTION_DDOT": 0}, "tle": {"line1": "1 66648U 25273B   25361.11238485  .00000018  00000+0  56644-4 0  9995", "line2": "2 66648  82.5032 277.5085 0008260 202.6396 157.4320 12.43233668  3924"}}, "geometry": {"type": "Point", "coordinates": [-79.76092420100994, 20.91122612001338]}}, {"type": "Feature", "properties": {"norad_id": 66649, "name": "COSMOS 2599 (RODNIK-S 24)", "group": "last-30-days", "lat": -37.08476492992869, "lon": 103.12052837710573, "alt_km": 1503.274424773027, "timestamp": "2025-12-27T08:36:17.076451+00:00", "meta": {"OBJECT_NAME": "COSMOS 2599 (RODNIK-S 24)", "OBJECT_ID": "2025-273C", "EPOCH": "2025-12-27T03:34:02.813088", "MEAN_MOTION": 12.41152439, "ECCENTRICITY": 0.0006357, "INCLINATION": 82.505, "RA_OF_ASC_NODE": 277.5402, "ARG_OF_PERICENTER": 239.9335, "MEAN_ANOMALY": 120.1113, "EPHEMERIS_TYPE": 0, "CLASSIFICATION_TYPE": "U", "NORAD_CAT_ID": 66649, "ELEMENT_SET_NO": 999, "REV_AT_EPOCH": 392, "BSTAR": 0.00022365, "MEAN_MOTION_DOT": 4e-07, "MEAN_MOTION_DDOT": 0}, "tle": {"line1": "1 66649U 25273C   25361.14864367  .00000040  00000+0  22365-3 0  9990", "line2": "2 66649  82.5050 277.5402 0006357 239.9335 120.1113 12.41152439  3920"}}, "geometry": {"type": "Point", "coordinates": [103.12052837710573, -37.08476492992869]}}, {"type": "Feature", "properties": {"norad_id": 66650, "name": "BEE-1000", "group": "last-30-days", "lat": -81.84148112957334, "lon": 36.697287767678084, "alt_km": 597.1832093708808, "timestamp": "2025-12-27T08:36:17.076461+00:00", "meta": {"OBJECT_NAME": "BEE-1000", "OBJECT_ID": "2025-274A", "EPOCH": "2025-12-26T16:55:14.687040", "MEAN_MOTION": 14.91708342, "ECCENTRICITY": 0.00112247, "INCLINATION": 97.7406, "RA_OF_ASC_NODE": 287.6373, "ARG_OF_PERICENTER": 200.3301, "MEAN_ANOMALY": 159.7472, "EPHEMERIS_TYPE": 0, "CLASSIFICATION_TYPE": "U", "NORAD_CAT_ID": 66650, "ELEMENT_SET_NO": 999, "REV_AT_EPOCH": 448, "BSTAR": 0.00017602863, "MEAN_MOTION_DOT": 1.717e-05, "MEAN_MOTION_DDOT": 0}, "tle": {"line1": "1 66650U 25274A   25360.70503110  .00001717  00000+0  17603-3 0  9991", "line2": "2 66650  97.7406 287.6373 0011224 200.3301 159.7472 14.91708342  4483"}}, "geometry": {"type": "Point", "coordinates": [36.697287767678084, -81.84148112957334]}}, {"type": "Feature", "properties": {"norad_id": 66651, "name": "2025-274B", "group": "last-30-days", "lat": -76.57646246319892, "lon": -36.97691604064609, "alt_km": 598.5760336580906, "timestamp": "2025-12-27T08:36:17.076472+00:00", "meta": {"OBJECT_NAME": "2025-274B", "OBJECT_ID": "2025-274B", "EPOCH": "2025-12-27T00:54:37.627200", "MEAN_MOTION": 14.91904708, "ECCENTRICITY": 0.0011443, "INCLINATION": 97.7398, "RA_OF_ASC_NODE": 287.9684, "ARG_OF_PERICENTER": 197.4185, "MEAN_ANOMALY": 162.6643, "EPHEMERIS_TYPE": 0, "CLASSIFICATION_TYPE": "U", "NORAD_CAT_ID": 66651, "ELEMENT_SET_NO": 999, "REV_AT_EPOCH": 453, "BSTAR": 0.00042985, "MEAN_MOTION_DOT": 4.297e-05, "MEAN_MOTION_DDOT": 0}, "tle": {"line1": "1 66651U 25274B   25361.03793550  .00004297  00000+0  42985-3 0  9995", "line2": "2 66651  97.7398 287.9684 0011443 197.4185 162.6643 14.91904708  4534"}}, "geometry": {"type": "Point", "coordinates": [-36.97691604064609, -76.57646246319892]}}, {"type": "Feature", "properties": {"norad_id": 66652, "name": "2025-274C", "group": "last-30-days", "lat": -65.29513033444084, "lon": -54.512555807554, "alt_km": 599.0363291686535, "timestamp": "2025-12-27T08:36:17.076483+00:00", "meta": {"OBJECT_NAME": "2025-274C", "OBJECT_ID": "2025-274C", "EPOCH": "2025-12-26T18:24:58.554432", "MEAN_MOTION": 14.91984941, "ECCENTRICITY": 0.00109401, "INCLINATION": 97.7406, "RA_OF_ASC_NODE": 287.7096, "ARG_OF_PERICENTER": 205.0107, "MEAN_ANOMALY": 155.0583, "EPHEMERIS_TYPE": 0, "CLASSIFICATION_TYPE": "U", "NORAD_CAT_ID": 66652, "ELEMENT_SET_NO": 999, "REV_AT_EPOCH": 449, "BSTAR": 0.00032448011, "MEAN_MOTION_DOT": 3.235e-05, "MEAN_MOTION_DDOT": 0}, "tle": {"line1": "1 66652U 25274C   25360.76734438  .00003235  00000+0  32448-3 0  9999", "line2": "2 66652  97.7406 287.7096 0010940 205.0107 155.0583 14.91984941  4492"}}, "geometry": {"type": "Point", "coordinates": [-54.512555807554, -65.29513033444084]}}, {"type": "Feature", "properties": {"norad_id": 66653, "name": "2025-274D", "group": "last-30-days", "lat": -65.02220936200511, "lon": -54.7338785428314, "alt_km": 599.588173601107, "timestamp": "2025-12-27T08:36:17.076495+00:00", "meta": {"OBJECT_NAME": "2025-274D", "OBJECT_ID": "2025-274D", "EPOCH": "2025-12-26T18:24:53.684928", "MEAN_MOTION": 14.91972672, "ECCENTRICITY": 0.00119326, "INCLINATION": 97.7403, "RA_OF_ASC_NODE": 287.709, "ARG_OF_PERICENTER": 201.7877, "MEAN_ANOMALY": 158.2836, "EPHEMERIS_TYPE": 0, "CLASSIFICATION_TYPE": "U", "NORAD_CAT_ID": 66653, "ELEMENT_SET_NO": 999, "REV_AT_EPOCH": 449, "BSTAR": 0.00025148356, "MEAN_MOTION_DOT": 2.494e-05, "MEAN_MOTION_DDOT": 0}, "tle": {"line1": "1 66653U 25274D   25360.76728802  .00002494  00000+0  25148-3 0  9993", "line2": "2 66653  97.7403 287.7090 0011932 201.7877 158.2836 14.91972672  4497"}}, "geometry": {"type": "Point", "coordinates": [-54.7338785428314, -65.02220936200511]}}, {"type": "Feature", "properties": {"norad_id": 66654, "name": "JACK E", "group": "last-30-days", "lat": -46.43681390737807, "lon": -63.478560291585545, "alt_km": 601.1896688102279, "timestamp": "2025-12-27T08:36:17.076507+00:00", "meta": {"OBJECT_NAME": "JACK E", "OBJECT_ID": "2025-274E", "EPOCH": "2025-12-26T18:19:50.587680", "MEAN_MOTION": 14.92159432, "ECCENTRICITY": 0.00124721, "INCLINATION": 97.7405, "RA_OF_ASC_NODE": 287.7147, "ARG_OF_PERICENTER": 203.4868, "MEAN_ANOMALY": 156.5783, "EPHEMERIS_TYPE": 0, "CLASSIFICATION_TYPE": "U", "NORAD_CAT_ID": 66654, "ELEMENT_SET_NO": 999, "REV_AT_EPOCH": 449, "BSTAR": 0.00031144819, "MEAN_MOTION_DOT": 3.118e-05, "MEAN_MOTION_DDOT": 0}, "tle": {"line1": "1 66654U 25274E   25360.76377995  .00003118  00000+0  31145-3 0  9995", "line2": "2 66654  97.7405 287.7147 0012472 203.4868 156.5783 14.92159432  4496"}}, "geometry": {"type": "Point", "coordinates": [-63.478560291585545, -46.43681390737807]}}, {"type": "Feature", "properties": {"norad_id": 66655, "name": "2025-274F", "group": "last-30-days", "lat": -81.58197996714149, "lon": 41.58030980734614, "alt_km": 600.2604738515893, "timestamp": "2025-12-27T08:36:17.076517+00:00", "meta": {"OBJECT_NAME": "2025-274F", "OBJECT_ID": "2025-274F", "EPOCH": "2025-12-26T20:08:20.531328", "MEAN_MOTION": 14.91205124, "ECCENTRICITY": 0.00043542, "INCLINATION": 97.7342, "RA_OF_ASC_NODE": 287.7575, "ARG_OF_PERICENTER": 333.556, "MEAN_ANOMALY": 26.5436, "EPHEMERIS_TYPE": 0, "CLASSIFICATION_TYPE": "U", "NORAD_CAT_ID": 66655, "ELEMENT_SET_NO": 999, "REV_AT_EPOCH": 450, "BSTAR": 2.614683e-06, "MEAN_MOTION_DOT": -2.9e-07, "MEAN_MOTION_DDOT": 0}, "tle": {"line1": "1 66655U 25274F   25360.83912652 -.00000029  00000+0  26147-5 0  9996", "line2": "2 66655  97.7342 287.7575 0004354 333.5560  26.5436 14.91205124  4508"}}, "geometry": {"type": "Point", "coordinates": [41.58030980734614, -81.58197996714149]}}]}